[{"OBJECT_NAME":"SAUDICOMSAT 7","OBJECT_ID":"2007-012C","EPOCH":"2026-03-09T21:01:06.645504","MEAN_MOTION":14.65971013,"ECCENTRICITY":0.00564818,"INCLINATION":98.3681,"RA_OF_ASC_NODE":41.0395,"ARG_OF_PERICENTER":146.597,"MEAN_ANOMALY":213.8816,"EPHEMERIS_TYPE":0,"CLASSIFICATION_TYPE":"U","NORAD_CAT_ID":31119,"ELEMENT_SET_NO":999,"REV_AT_EPOCH":788,"BSTAR":0.00016617256,"MEAN_MOTION_DOT":8.78e-6,"MEAN_MOTION_DDOT":0},{"OBJECT_NAME":"YAOGAN-33 04","OBJECT_ID":"2023-149A","EPOCH":"2026-03-10T00:08:02.588928","MEAN_MOTION":14.58624687,"ECCENTRICITY":0.00010375,"INCLINATION":98.1869,"RA_OF_ASC_NODE":19.7732,"ARG_OF_PERICENTER":50.2829,"MEAN_ANOMALY":309.8461,"EPHEMERIS_TYPE":0,"CLASSIFICATION_TYPE":"U","NORAD_CAT_ID":57958,"ELEMENT_SET_NO":999,"REV_AT_EPOCH":13054,"BSTAR":0.00018482829,"MEAN_MOTION_DOT":8.15e-6,"MEAN_MOTION_DDOT":0}]
